CALSPHERE 2             
1 00902U 64063E   25069.96321391  .00000069  00000+0  89968-4 0  9994
2 00902  90.2223  64.9624 0020074 128.3722 290.6752 13.52850833793637
LCS 1                   
1 01361U 65034C   25069.58220451 -.00000006  00000+0 -18353-2 0  9997
2 01361  32.1375 197.7870 0011479 279.3521  80.5678  9.89308205163978
TEMPSAT 1               
1 01512U 65065E   25069.91369381  .00000055  00000+0  90549-4 0  9993
2 01512  89.9716 213.1457 0071471 109.2629  14.5083 13.33557107898307
CALSPHERE 4A            
1 01520U 65065H   25069.85622569  .00000143  00000+0  25810-3 0  9991
2 01520  89.9277 126.4454 0067942 332.5327  79.2668 13.36172858900833
OPS 5712 (P/L 160)      
1 02826U 67053A   25069.86528094  .00011057  00000+0  19288-2 0  9996
2 02826  69.9196  85.8407 0006026 307.2269  52.8324 14.68157078997988
LES-5                   
1 02866U 67066E   25069.65530870 -.00000094  00000+0  00000+0 0  9995
2 02866   1.5784 115.1414 0056130 186.4663 311.7498  1.09425542125963
SURCAL 159              
1 02872U 67053F   25070.02359642  .00000196  00000+0  17154-3 0  9991
2 02872  69.9725 278.0481 0006905 336.8201  23.2593 13.99428093945822
OPS 3811 (DSP 2)        
1 05204U 71039A   25069.82268184 -.00000192  00000+0  00000+0 0  9993
2 05204   0.9688 285.5873 0023135   2.3898 149.5423  0.98162243201686
RIGIDSPHERE 2 (LCS 4)   
1 05398U 71067E   25069.85347809  .00001230  00000+0  40154-3 0  9994
2 05398  87.6158 107.4827 0059244 331.4663  28.3296 14.36943518807550
OSCAR 7 (AO-7)          
1 07530U 74089B   25069.98667245 -.00000020  00000+0  16901-3 0  9994
2 07530 101.9950  73.2815 0011884 295.6613  88.7063 12.53686993302719
STARLETTE               
1 07646U 75010A   25070.19998543 -.00000130  00000+0  99611-5 0  9993
2 07646  49.8235 132.0857 0205656 333.5433  25.5077 13.82340565530472
LAGEOS 1                
1 08820U 76039A   25069.64006193 -.00000016  00000+0  00000+0 0  9990
2 08820 109.8613  20.5476 0044322  41.0546 131.6612  6.38665056883539
OPS 8701 (DSP 10)       
1 13086U 82019A   25068.16878674 -.00000054  00000+0  00000+0 0  9994
2 13086  10.2360 312.5635 0003935 305.9922 246.2544  0.98188051 21096
PHASE 3B (AO-10)        
1 14129U 83058B   25067.12020854 -.00000001  00000+0  00000+0 0  9993
2 14129  27.0346 297.4438 6047795 347.1978   2.6452  2.05869818285893
AJISAI (EGS)            
1 16908U 86061A   25070.23698201 -.00000094  00000+0  22316-4 0  9991
2 16908  50.0084 130.9516 0011343  82.4624 308.1676 12.44510980423099
TDRS 3                  
1 19548U 88091B   25069.19767007 -.00000308  00000+0  00000+0 0  9992
2 19548  12.9563 344.0939 0041372 343.6633 222.6306  1.00277286120739
COSMOS 1989 (ETALON 1)  
1 19751U 89001C   25069.67410681  .00000046  00000+0  00000+0 0  9994
2 19751  64.6835  88.0780 0023636 216.8326 106.9859  2.13156140281480
COSMOS 2024 (ETALON 2)  
1 20026U 89039C   25069.42755894 -.00000063  00000+0  00000+0 0  9993
2 20026  65.2055 326.4698 0019892 215.8990 356.4562  2.13204454278616
FLTSATCOM 8 (USA 46)    
1 20253U 89077A   25069.87976566 -.00000378  00000+0  00000+0 0  9996
2 20253  12.5529 353.9377 0007055 338.7434 278.2754  1.00261822255913
LUSAT (LO-19)           
1 20442U 90005G   25069.88449790  .00000346  00000+0  14105-3 0  9993
2 20442  98.9000  73.4774 0012597 121.7040 238.5374 14.33883563835991
HST                     
1 20580U 90037B   25069.85773266  .00009524  00000+0  37869-3 0  9995
2 20580  28.4694 350.7170 0002171  69.6410 290.4417 15.23547573717666
SKYNET 4C               
1 20776U 90079A   25069.96572573  .00000117  00000+0  00000+0 0  9990
2 20776  13.4852 352.9692 0003411  63.1331 133.7379  1.00270003126295
TDRS 5                  
1 21639U 91054B   25069.46919523 -.00000160  00000+0  00000+0 0  9997
2 21639  14.1273 357.1736 0004142 343.5401 265.0968  0.99949650123063
USA 75 (DSP 16)         
1 21805U 91080B   25069.06225556 -.00000072  00000+0  00000+0 0  9995
2 21805  14.2554 348.8223 0003744  81.1510 141.4655  0.99188004 21102
LAGEOS 2                
1 22195U 92070B   25065.87914605 -.00000009  00000+0  00000+0 0  9993
2 22195  52.6420 201.9779 0137132 342.8036 314.4195  6.47293977765164
