OBJECT_NAME,OBJECT_ID,EPOCH,MEAN_MOTION,ECCENTRICITY,INCLINATION,RA_OF_ASC_NODE,ARG_OF_PERICENTER,MEAN_ANOMALY,EPHEMERIS_TYPE,CLASSIFICATION_TYPE,NORAD_CAT_ID,ELEMENT_SET_NO,REV_AT_EPOCH,BSTAR,MEAN_MOTION_DOT,MEAN_MOTION_DDOT
CALSPHERE 2,1964-063E,2025-03-10T23:07:01.681824,13.52850833,.0020074,90.2223,64.9624,128.3722,290.6752,0,U,902,999,79363,.89968E-4,.69E-6,0
LCS 1,1965-034C,2025-03-10T13:58:22.469664,9.89308205,.0011479,32.1375,197.7870,279.3521,80.5678,0,U,1361,999,16397,-.18353E-2,-.6E-7,0
TEMPSAT 1,1965-065E,2025-03-10T21:55:43.145184,13.33557107,.0071471,89.9716,213.1457,109.2629,14.5083,0,U,1512,999,89830,.90549E-4,.55E-6,0
CALSPHERE 4A,1965-065H,2025-03-10T20:32:57.899616,13.36172858,.0067942,89.9277,126.4454,332.5327,79.2668,0,U,1520,999,90083,.2581E-3,.143E-5,0
OPS 5712 (P/L 160),1967-053A,2025-03-10T20:46:00.273216,14.68157078,.0006026,69.9196,85.8407,307.2269,52.8324,0,U,2826,999,99798,.19288E-2,.11057E-3,0
LES-5,1967-066E,2025-03-10T15:43:38.671680,1.09425542,.005613,1.5784,115.1414,186.4663,311.7498,0,U,2866,999,12596,0,-.94E-6,0
SURCAL 159,1967-053F,2025-03-11T00:33:58.730688,13.99428093,.0006905,69.9725,278.0481,336.8201,23.2593,0,U,2872,999,94582,.17154E-3,.196E-5,0
OPS 3811 (DSP 2),1971-039A,2025-03-10T19:44:39.710976,0.98162243,.0023135,0.9688,285.5873,2.3898,149.5423,0,U,5204,999,20168,0,-.192E-5,0
RIGIDSPHERE 2 (LCS 4),1971-067E,2025-03-10T20:29:00.506976,14.36943518,.0059244,87.6158,107.4827,331.4663,28.3296,0,U,5398,999,80755,.40154E-3,.123E-4,0
OSCAR 7 (AO-7),1974-089B,2025-03-10T23:40:48.499680,12.53686993,.0011884,101.9950,73.2815,295.6613,88.7063,0,U,7530,999,30271,.16901E-3,-.2E-6,0
STARLETTE,1975-010A,2025-03-11T04:47:58.741152,13.82340565,.0205656,49.8235,132.0857,333.5433,25.5077,0,U,7646,999,53047,.99611E-5,-.13E-5,0
LAGEOS 1,1976-039A,2025-03-10T15:21:41.350752,6.38665056,.0044322,109.8613,20.5476,41.0546,131.6612,0,U,8820,999,88353,0,-.16E-6,0
OPS 8701 (DSP 10),1982-019A,2025-03-09T04:03:03.174336,0.98188051,.0003935,10.2360,312.5635,305.9922,246.2544,0,U,13086,999,2109,0,-.54E-6,0
PHASE 3B (AO-10),1983-058B,2025-03-08T02:53:06.017856,2.05869818,.6047795,27.0346,297.4438,347.1978,2.6452,0,U,14129,999,28589,0,-.1E-7,0
AJISAI (EGS),1986-061A,2025-03-11T05:41:15.245664,12.44510980,.0011343,50.0084,130.9516,82.4624,308.1676,0,U,16908,999,42309,.22316E-4,-.94E-6,0
TDRS 3,1988-091B,2025-03-10T04:44:38.694048,1.00277286,.0041372,12.9563,344.0939,343.6633,222.6306,0,U,19548,999,12073,0,-.308E-5,0
COSMOS 1989 (ETALON 1),1989-001C,2025-03-10T16:10:42.828384,2.13156140,.0023636,64.6835,88.0780,216.8326,106.9859,0,U,19751,999,28148,0,.46E-6,0
COSMOS 2024 (ETALON 2),1989-039C,2025-03-10T10:15:41.092416,2.13204454,.0019892,65.2055,326.4698,215.8990,356.4562,0,U,20026,999,27861,0,-.63E-6,0
FLTSATCOM 8 (USA 46),1989-077A,2025-03-10T21:06:51.753024,1.00261822,.0007055,12.5529,353.9377,338.7434,278.2754,0,U,20253,999,25591,0,-.378E-5,0
LUSAT (LO-19),1990-005G,2025-03-10T21:13:40.618560,14.33883563,.0012597,98.9000,73.4774,121.7040,238.5374,0,U,20442,999,83599,.14105E-3,.346E-5,0
HST,1990-037B,2025-03-10T20:35:08.101824,15.23547573,.0002171,28.4694,350.7170,69.6410,290.4417,0,U,20580,999,71766,.37869E-3,.9524E-4,0
SKYNET 4C,1990-079A,2025-03-10T23:10:38.703072,1.00270003,.0003411,13.4852,352.9692,63.1331,133.7379,0,U,20776,999,12629,0,.117E-5,0
TDRS 5,1991-054B,2025-03-10T11:15:38.467872,0.99949650,.0004142,14.1273,357.1736,343.5401,265.0968,0,U,21639,999,12306,0,-.16E-5,0
USA 75 (DSP 16),1991-080B,2025-03-10T01:29:38.880384,0.99188004,.0003744,14.2554,348.8223,81.1510,141.4655,0,U,21805,999,2110,0,-.72E-6,0
LAGEOS 2,1992-070B,2025-03-06T21:05:58.218720,6.47293977,.0137132,52.6420,201.9779,342.8036,314.4195,0,U,22195,999,76516,0,-.9E-7,0
